SENTINEL-6              
1 46984U 20086A   23335.84067262 -.00000036  00000+0  11004-3 0  9996
2 46984  66.0413 263.2349 0007831 269.5882  90.4236 12.80928362141552
